IRIDIUM 57 [-]          
1 25273U 98019B   23291.56911473  .00000805  00000+0  27641-3 0  9994
2 25273  86.3999  39.6864 0002117  92.4491 267.6947 14.34946032337832
IRIDIUM 63 [-]          
1 25286U 98021B   23291.19323193  .00000651  00000+0  21983-3 0  9998
2 25286  86.4000 336.8166 0002388  91.1867 268.9603 14.35450568336590
IRIDIUM 69 [-]          
1 25319U 98026A   23291.20490605  .00000787  00000+0  24554-3 0  9992
2 25319  86.4026 351.8940 0001734 161.0655 199.0609 14.39622373335552
IRIDIUM 71 [-]          
1 25320U 98026B   23291.18997392  .00000763  00000+0  23649-3 0  9994
2 25320  86.4012 346.7319 0000738  18.9309 341.1917 14.39957149336062
IRIDIUM 73 [-]          
1 25344U 98032C   23291.09408062  .00000917  00000+0  23131-3 0  9995
2 25344  86.4374 304.5942 0001739 100.9551 259.1849 14.50074629342397
IRIDIUM 82 [-]          
1 25467U 98051A   23291.03413987  .00011423  00000+0  66643-3 0  9997
2 25467  86.3971  40.1045 0147123  29.8149 331.1363 15.03022623331882
IRIDIUM 2 [-]           
1 25527U 98066A   23291.17819631  .00040958  00000+0  94771-3 0  9999
2 25527  85.5154  96.6212 0004617 169.1302 191.0052 15.42289325370073
